NORAD_CAT_ID,OBJECT_NAME,OBJECT_TYPE,EPOCH,MEAN_MOTION,ECCENTRICITY,INCLINATION,RA_OF_ASC_NODE,ARG_OF_PERICENTER,MEAN_ANOMALY,BSTAR,MEAN_MOTION_DOT,MEAN_MOTION_DDOT,TLE_LINE0,TLE_LINE1,TLE_LINE2,SEMIMAJOR_AXIS,PERIOD,APOGEE,PERIGEE,DECAYED
55952.0,STARLINK-5893,PAYLOAD,2024-06-29 21:57:31,14.9832108,0.0002657,70.0015,22.2086,250.6444,109.4428,-8.6543e-05,-1.125e-05,0.0,0 STARLINK-5893,1 55952U 23037AQ  24181.91494371 -.00001125  00000-0 -86543-4 0  9996,2 55952  70.0015  22.2086 0002657 250.6444 109.4428 14.98321080 71930,6950.22,96.108,573.932,570.239,0.0
55952.0,STARLINK-5893,PAYLOAD,2024-06-29 23:33:39,14.98320621,0.0002683,70.0013,22.0398,253.2372,106.8492,-9.5357e-05,-1.23e-05,0.0,0 STARLINK-5893,1 55952U 23037AQ  24181.98170459 -.00001230  00000-0 -95357-4 0  9991,2 55952  70.0013  22.0398 0002683 253.2372 106.8492 14.98320621 72281,6950.222,96.108,573.952,570.222,0.0
55952.0,STARLINK-5893,PAYLOAD,2024-06-30 13:58:50,14.98335148,0.0003071,69.9998,20.5213,270.4916,89.5892,-1.448e-05,-2.66e-06,0.0,0 STARLINK-5893,1 55952U 23037AQ  24182.58253339 -.00000266  00000-0 -14480-4 0  9993,2 55952  69.9998  20.5213 0003071 270.4916  89.5892 14.98335148 72030,6950.177,96.107,574.176,569.908,0.0
55952.0,STARLINK-5893,PAYLOAD,2024-06-30 20:23:22,14.98338842,0.000301,70.0,19.8483,260.8755,99.2064,3.6015e-05,3.37e-06,0.0,0 STARLINK-5893,1 55952U 23037AQ  24182.84956814  .00000337  00000-0  36015-4 0  9995,2 55952  70.0000  19.8483 0003010 260.8755  99.2064 14.98338842 72419,6950.166,96.106,574.123,569.939,0.0
55952.0,STARLINK-5893,PAYLOAD,2024-06-30 21:59:30,14.98341856,0.0003023,70.0,19.68,269.4048,90.6765,3.6705e-05,3.45e-06,0.0,0 STARLINK-5893,1 55952U 23037AQ  24182.91632625  .00000345  00000-0  36705-4 0  9999,2 55952  70.0000  19.6800 0003023 269.4048  90.6765 14.98341856 72089,6950.156,96.106,574.122,569.92,0.0
55952.0,STARLINK-5893,PAYLOAD,2024-07-01 02:47:54,14.98344123,0.0003135,69.9997,19.1745,266.2844,93.7956,3.329e-05,3.04e-06,0.0,0 STARLINK-5893,1 55952U 23037AQ  24183.11660306  .00000304  00000-0  33290-4 0  9990,2 55952  69.9997  19.1745 0003135 266.2844  93.7956 14.98344123 72454,6950.149,96.106,574.193,569.835,0.0
55952.0,STARLINK-5893,PAYLOAD,2024-07-01 12:24:43,14.98324728,0.0002868,70.0002,18.1652,268.7988,91.2842,6.9212e-05,7.33e-06,0.0,0 STARLINK-5893,1 55952U 23037AQ  24183.51717464  .00000733  00000-0  69212-4 0  9991,2 55952  70.0002  18.1652 0002868 268.7988  91.2842 14.98324728 72511,6950.209,96.107,574.068,570.081,0.0
55952.0,STARLINK-5893,PAYLOAD,2024-07-01 14:00:51,14.98324699,0.0002873,70.0001,17.9969,268.6067,91.4763,6.598e-05,6.94e-06,0.0,0 STARLINK-5893,1 55952U 23037AQ  24183.58393486  .00000694  00000-0  65980-4 0  9996,2 55952  70.0001  17.9969 0002873 268.6067  91.4763 14.98324699 72185,6950.209,96.107,574.071,570.077,0.0
55952.0,STARLINK-5893,PAYLOAD,2024-07-01 20:25:24,14.9832659,0.0002986,70.0,17.3233,267.4755,92.6062,7.178e-05,7.63e-06,0.0,0 STARLINK-5893,1 55952U 23037AQ  24183.85097382  .00000763  00000-0  71780-4 0  9994,2 55952  70.0000  17.3233 0002986 267.4755  92.6062 14.98326590 72567,6950.203,96.107,574.144,569.993,0.0
55952.0,STARLINK-5893,PAYLOAD,2024-07-01 22:01:31,14.98330973,0.0003119,69.9998,17.1536,269.1203,90.9599,0.00010795,1.195e-05,0.0,0 STARLINK-5893,1 55952U 23037AQ  24183.91772985  .00001195  00000-0  10795-3 0  9998,2 55952  69.9998  17.1536 0003119 269.1203  90.9599 14.98330973 72577,6950.19,96.107,574.223,569.887,0.0
55952.0,STARLINK-5893,PAYLOAD,2024-07-02 12:26:44,14.98332065,0.0002462,70.0011,15.6406,266.6793,93.4084,-3.5507e-05,-5.17e-06,0.0,0 STARLINK-5893,1 55952U 23037AQ  24184.51857407 -.00000517  00000-0 -35507-4 0  9996,2 55952  70.0011  15.6406 0002462 266.6793  93.4084 14.98332065 72662,6950.187,96.107,573.763,570.34,0.0
55952.0,STARLINK-5893,PAYLOAD,2024-07-02 14:02:53,14.98327146,0.0002906,70.0015,15.4742,270.5561,89.5265,-5.4777e-05,-7.46e-06,0.0,0 STARLINK-5893,1 55952U 23037AQ  24184.58533706 -.00000746  00000-0 -54777-4 0  9990,2 55952  70.0015  15.4742 0002906 270.5561  89.5265 14.98327146 72332,6950.202,96.107,574.086,570.047,0.0
55952.0,STARLINK-5893,PAYLOAD,2024-07-02 20:27:25,14.98325609,0.0002785,70.0011,14.7996,268.3478,91.7362,-9.3264e-05,-1.205e-05,0.0,0 STARLINK-5893,1 55952U 23037AQ  24184.85237949 -.00001205  00000-0 -93264-4 0  9995,2 55952  70.0011  14.7996 0002785 268.3478  91.7362 14.98325609 72715,6950.206,96.107,574.007,570.136,0.0
55952.0,STARLINK-5893,PAYLOAD,2024-07-02 22:03:33,14.98326893,0.0002716,70.0009,14.6309,267.7503,92.3345,-0.00010078,-1.295e-05,0.0,0 STARLINK-5893,1 55952U 23037AQ  24184.91913907 -.00001295  00000-0 -10078-3 0  9997,2 55952  70.0009  14.6309 0002716 267.7503  92.3345 14.98326893 72382,6950.202,96.107,573.955,570.18,0.0
55952.0,STARLINK-5893,PAYLOAD,2024-07-03 12:28:45,14.98327122,0.0002986,70.0004,13.1152,269.4616,90.6201,1.2236e-05,5.3e-07,0.0,0 STARLINK-5893,1 55952U 23037AQ  24185.51997517  .00000053  00000-0  12236-4 0  9991,2 55952  70.0004  13.1152 0002986 269.4616  90.6201 14.98327122 72816,6950.202,96.107,574.142,569.991,0.0
55952.0,STARLINK-5893,PAYLOAD,2024-07-03 20:29:25,14.98330299,0.0003019,70.0007,12.2743,269.8201,90.2612,3.3293e-05,3.04e-06,0.0,0 STARLINK-5893,1 55952U 23037AQ  24185.85377278  .00000304  00000-0  33293-4 0  9999,2 55952  70.0007  12.2743 0003019 269.8201  90.2612 14.98330299 72863,6950.192,96.107,574.155,569.959,0.0
55952.0,STARLINK-5893,PAYLOAD,2024-07-03 22:03:11,15.00157976,0.0003683,70.0,12.0989,247.5472,112.5298,0.019769,0.00256504,0.0,0 STARLINK-5893,1 55952U 23037AQ  24185.91888141  .00256504  00000-0  19769-1 0  9996,2 55952  70.0000  12.0989 0003683 247.5472 112.5298 15.00157976 72531,6944.546,95.99,568.968,563.853,0.0
55952.0,STARLINK-5893,PAYLOAD,2024-07-04 14:00:01,14.98353589,0.0003235,70.0017,10.4333,265.897,68.3432,-0.0012998,-0.00015577,0.0,0 STARLINK-5893,1 55952U 23037AQ  24186.58334491 -.00015577  00000-0 -12998-2 0  9997,2 55952  70.0017  10.4333 0003235 265.8970  68.3432 14.98353589 72973,6950.12,96.105,574.233,569.737,0.0
55952.0,STARLINK-5893,PAYLOAD,2024-07-04 16:00:00,14.98361622,0.0003237,70.0017,10.2231,267.6721,155.941,-0.0035087,-0.00041745,0.0,0 STARLINK-5893,1 55952U 23037AQ  24186.66667824 -.00041745  00000-0 -35087-2 0  9995,2 55952  70.0017  10.2231 0003237 267.6721 155.9410 14.98361622 72981,6950.095,96.105,574.21,569.71,0.0
55952.0,STARLINK-5893,PAYLOAD,2024-07-06 12:34:48,14.98331374,0.0003048,70.0005,5.5397,273.5574,86.5237,-3.1744e-05,-4.72e-06,0.0,0 STARLINK-5893,1 55952U 23037AQ  24188.52417172 -.00000472  00000-0 -31744-4 0  9991,2 55952  70.0005   5.5397 0003048 273.5574  86.5237 14.98331374 73269,6950.189,96.107,574.172,569.935,0.0
55952.0,STARLINK-5893,PAYLOAD,2024-07-06 14:10:56,14.98331013,0.0003056,70.0005,5.3714,272.5376,87.5433,-3.19e-05,-4.74e-06,0.0,0 STARLINK-5893,1 55952U 23037AQ  24188.59093171 -.00000474  00000-0 -31900-4 0  9993,2 55952  70.0005   5.3714 0003056 272.5376  87.5433 14.98331013 72930,6950.19,96.107,574.179,569.931,0.0
55952.0,STARLINK-5893,PAYLOAD,2024-07-06 20:35:28,14.98330209,0.0003121,70.0005,4.6984,272.7635,87.3166,-2.8182e-05,-4.29e-06,0.0,0 STARLINK-5893,1 55952U 23037AQ  24188.85797181 -.00000429  00000-0 -28182-4 0  9992,2 55952  70.0005   4.6984 0003121 272.7635  87.3166 14.98330209 73314,6950.192,96.107,574.226,569.888,0.0
55952.0,STARLINK-5893,PAYLOAD,2024-07-06 22:11:37,14.98326509,0.0003549,69.9993,4.5249,287.7679,72.3092,-6.048e-05,-8.15e-06,0.0,0 STARLINK-5893,1 55952U 23037AQ  24188.92473572 -.00000815  00000-0 -60480-4 0  9991,2 55952  69.9993   4.5249 0003549 287.7679  72.3092 14.98326509 72980,6950.204,96.107,574.535,569.602,0.0
55952.0,STARLINK-5893,PAYLOAD,2024-07-07 06:00:00,14.98271717,0.0003261,70.0018,3.7092,270.5092,43.5993,0.0020629,0.00024571,0.0,0 STARLINK-5893,1 55952U 23037AQ  24189.25001157  .00024571  00000-0  20629-2 0  9996,2 55952  70.0018   3.7092 0003261 270.5092  43.5993 14.98271717 73372,6950.373,96.111,574.505,569.972,0.0
55952.0,STARLINK-5893,PAYLOAD,2024-07-07 12:00:02,14.9830908,0.0003073,70.0021,3.079,266.5557,315.627,0.0044733,0.00053663,0.0,0 STARLINK-5893,1 55952U 23037AQ  24189.50002315  .00053663  00000-0  44733-2 0  9997,2 55952  70.0021   3.0790 0003073 266.5557 315.6270 14.98309080 73417,6950.258,96.108,574.258,569.987,0.0
55952.0,STARLINK-5893,PAYLOAD,2024-07-07 22:00:00,14.98325355,0.0003052,70.0021,2.0283,273.139,35.8402,0.0036103,0.00043246,0.0,0 STARLINK-5893,1 55952U 23037AQ  24189.91667824  .00043246  00000-0  36103-2 0  9992,2 55952  70.0021   2.0283 0003052 273.1390  35.8402 14.98325355 73476,6950.207,96.107,574.193,569.951,0.0
55952.0,STARLINK-5893,PAYLOAD,2024-07-08 00:00:00,14.98348391,0.0003071,70.0018,1.8181,273.1236,125.2215,-2.0601e-05,-3.39e-06,0.0,0 STARLINK-5893,1 55952U 23037AQ  24190.00001157 -.00000339  00000-0 -20601-4 0  9991,2 55952  70.0018   1.8181 0003071 273.1236 125.2215 14.98348391 73488,6950.136,96.106,574.135,569.867,0.0
55952.0,STARLINK-5893,PAYLOAD,2024-07-08 12:38:50,14.98334112,0.0003293,70.0,0.4892,271.8608,88.2174,0.00011681,1.301e-05,0.0,0 STARLINK-5893,1 55952U 23037AQ  24190.52697747  .00001301  00000-0  11681-3 0  9999,2 55952  70.0000   0.4892 0003293 271.8608  88.2174 14.98334112 73564,6950.18,96.107,574.334,569.756,0.0
55952.0,STARLINK-5893,PAYLOAD,2024-07-08 14:14:58,14.98337281,0.0003151,70.0005,0.3213,270.6289,89.4509,0.00014864,1.681e-05,0.0,0 STARLINK-5893,1 55952U 23037AQ  24190.59373462  .00001681  00000-0  14864-3 0  9998,2 55952  70.0005   0.3213 0003151 270.6289  89.4509 14.98337281 73239,6950.17,96.107,574.225,569.845,0.0
55952.0,STARLINK-5893,PAYLOAD,2024-07-08 20:39:30,14.98342514,0.0003059,70.0006,359.6485,268.8328,91.2481,0.00021302,2.45e-05,0.0,0 STARLINK-5893,1 55952U 23037AQ  24190.86076857  .00002450  00000-0  21302-3 0  9996,2 55952  70.0006 359.6485 0003059 268.8328  91.2481 14.98342514 73618,6950.154,96.106,574.145,569.893,0.0
